ELEKTRO-L 2             
1 41105U 15074A   24268.23907163 -.00000128  00000+0  00000+0 0  9991
2 41105   5.0908  78.2429 0003133 163.2570 193.6709  1.00272173 32172
TELEOS-1                
1 41169U 15077D   24268.29213165  .00039073  00000+0  99330-3 0  9990
2 41169  14.9774 143.7826 0005114 236.0947 123.8890 15.37582907486093
DAMPE                   
1 41173U 15078A   24268.77275039  .00003210  00000+0  12077-3 0  9994
2 41173  97.4380 261.9707 0013818 143.5179 216.7004 15.27787841488181
ORBCOMM FM114           
1 41179U 15081A   24268.55637571  .00002070  00000+0  49250-3 0  9999
2 41179  47.0022 100.6107 0002867 216.5468 143.5222 14.57054004465766
ORBCOMM FM110           
1 41182U 15081D   24268.80680191  .00001917  00000+0  45887-3 0  9998
2 41182  47.0013  98.8142 0001019 329.7889  30.2937 14.57047614465808
ORBCOMM FM112           
1 41184U 15081F   24268.71554133  .00002702  00000+0  63140-3 0  9991
2 41184  47.0000   8.2881 0002657 257.4674 102.5914 14.57048897466981
ORBCOMM FM113           
1 41185U 15081G   24268.55541977  .00002535  00000+0  59457-3 0  9996
2 41185  47.0019   9.3298 0002373 269.9867  90.0746 14.57062977466892
ORBCOMM FM108           
1 41187U 15081J   24268.44085684  .00001754  00000+0  42292-3 0  9995
2 41187  47.0044 281.1196 0001572 182.5147 177.5731 14.57050213468022
ORBCOMM FM117           
1 41188U 15081K   24268.33854383  .00001714  00000+0  41416-3 0  9997
2 41188  47.0007 280.4540 0002428 196.2264 163.8543 14.57053109468059
ORBCOMM FM116           
1 41189U 15081L   24268.60271007  .00002720  00000+0  63502-3 0  9992
2 41189  47.0030   9.0438 0003183 264.1402  95.9120 14.57070283466972
CHUBUSAT-2              
1 41338U 16012B   24268.69183488  .00010194  00000+0  60224-3 0  9999
2 41338  31.0004 109.5707 0009946 153.8164 206.2979 15.10197669472647
CHUBUSAT-3              
1 41339U 16012C   24268.87743008  .00009608  00000+0  57970-3 0  9992
2 41339  31.0067 107.5604 0010131 159.6949 200.4093 15.09417349472645
HORYU-4                 
1 41340U 16012D   24268.74144093  .00024452  00000+0  10774-2 0  9993
2 41340  31.0025  44.9865 0007172 271.4978  88.4841 15.20627021473290
ZIYUAN 3-2 (ZY 3-2)     
1 41556U 16033A   24268.80537354  .00015528  00000+0  70323-3 0  9999
2 41556  97.4476 343.1631 0004194 282.0815  77.9950 15.20957453462140
CARTOSAT-2C             
1 41599U 16040A   24268.80859724  .00010866  00000+0  51744-3 0  9998
2 41599  97.4627 326.7691 0013512 172.7020 187.4414 15.19234656458008
LAPAN-A3                
1 41603U 16040E   24268.79581409  .00006365  00000+0  24616-3 0  9991
2 41603  97.1435 278.0780 0013862 105.6605 254.6165 15.26458591458417
BIROS                   
1 41604U 16040F   24268.79682691  .00026356  00000+0  60686-3 0  9996
2 41604  97.1182 294.6313 0009452  57.3408 302.8751 15.42548390459511
M3MSAT                  
1 41605U 16040G   24268.49730450  .00027642  00000+0  63562-3 0  9996
2 41605  97.1168 291.4782 0010176  74.3715 285.8655 15.42571383459281
GAOFEN-3                
1 41727U 16049A   24268.78341588  .00000265  00000+0  93636-4 0  9990
2 41727  98.4078 274.9855 0001091  85.1818 274.9496 14.42206694427777
QSS (MOZI)              
1 41731U 16051A   24268.84790617  .00018977  00000+0  46153-3 0  9996
2 41731  97.3003 180.4857 0007419 210.7581 149.3232 15.40985452452028
PRATHAM                 
1 41783U 16059A   24268.50265199  .00001959  00000+0  36851-3 0  9992
2 41783  97.8352 283.1927 0033744  66.7511 293.7240 14.65316573427087
ALSAT 1N                
1 41789U 16059G   24268.80824482  .00002575  00000+0  46450-3 0  9998
2 41789  97.8248 289.6996 0027995  43.8566 316.4855 14.67060136427494
CAS-2T & KS-1Q          
1 41847U 16066G   24268.49416779  .00002958  00000+0  43884-3 0  9995
2 41847  98.4511 339.0542 0351041 238.0600 118.6009 14.41827084413803
YUNHAI-1 01             
1 41857U 16068A   24268.81818311  .00000795  00000+0  30528-3 0  9990
2 41857  98.5947 274.1428 0008196  74.1904 286.0183 14.33221109411556
RESOURCESAT-2A          
1 41877U 16074A   24268.80646602  .00000404  00000+0  20359-3 0  9998
2 41877  98.6374 340.2147 0002113  83.9355 276.2063 14.21666844404744
TANSAT                  
1 41898U 16081A   24268.82342893  .00001440  00000+0  31740-3 0  9993
2 41898  98.4822 241.5815 0022220  95.5375 264.8358 14.58828938412675
JILIN-1 03              
1 41914U 17002B   24268.78511821  .00016094  00000+0  69207-3 0  9990
2 41914  97.2158 281.6048 0006325 268.9593  91.0919 15.22703711425302
KAIDUN 1                
1 41915U 17002C   24268.78620686  .00032498  00000+0  95915-3 0  9992
2 41915  97.1954 293.8964 0004383 212.8389 147.2583 15.34905532426121
CARTOSAT-2D             
1 41948U 17008A   24268.57720135  .00011373  00000+0  54221-3 0  9995
2 41948  97.4145 326.1224 0005934 279.8722  80.1843 15.19246361421836
ZHUHAI-1 02 (CAS-4B)    
1 42759U 17034B   24268.75952969  .00035795  00000+0  10713-2 0  9998
2 42759  43.0172  21.7634 0013437 299.8646  60.0873 15.33831886402669
ZHUHAI-1 01 (CAS-4A)    
1 42761U 17034D   24268.75168545  .00035448  00000+0  10544-2 0  9997
2 42761  43.0209  20.0703 0013238 310.9309  49.0399 15.34033509402670
CARTOSAT-2E             
1 42767U 17036C   24268.79170871  .00012147  00000+0  57881-3 0  9991
2 42767  97.4265 326.5935 0004948 345.3296  14.7794 15.19254459402431
D-SAT                   
1 42794U 17036AF  24268.41213291  .00009090  00000+0  59977-3 0  9995
2 42794  97.4902 246.8075 0106650 169.3520 191.0000 15.03038778395612
IRIDIUM 113             
1 42803U 17039A   24268.60272152  .00000489  00000+0  16753-3 0  9999
2 42803  86.3984 225.6234 0002041  82.9642 277.1786 14.34219149380804
NORSAT 2                
1 42828U 17042D   24268.49070571  .00013337  00000+0  96674-3 0  9994
2 42828  97.3822  89.9326 0015604  77.9493 282.3481 15.03962733392336
TECHNOSAT               
1 42829U 17042E   24268.76483130  .00007505  00000+0  63963-3 0  9999
2 42829  97.3881  84.3633 0013438  99.1324 261.1420 14.97951335392071
FLYING LAPTOP           
1 42831U 17042G   24268.60704025  .00003950  00000+0  35615-3 0  9997
2 42831  97.3910  83.8742 0013619 101.1261 259.1494 14.96018443391998
WNISAT 1R               
1 42835U 17042L   24268.75151423  .00005013  00000+0  44756-3 0  9993
2 42835  97.3885  83.8838 0012895  98.8008 261.4675 14.96296699392040
LEMUR-2-GREENBERG       
1 42837U 17042N   24268.45654252  .00015938  00000+0  10444-2 0  9993
2 42837  97.3649  92.6861 0015029  55.4957 304.7688 15.07691182392581
LEMUR-2-FURIAUS         
1 42840U 17042R   24268.48198953  .00015551  00000+0  10616-2 0  9993
2 42840  97.3652  92.3097 0013545 102.6620 257.6123 15.06197433392512
CORVUS BC2              
1 42846U 17042X   24268.56397900  .00006537  00000+0  54239-3 0  9995
2 42846  97.3753  88.2320 0008274  86.4525 273.7645 14.99078440392323
CORVUS BC1              
1 42847U 17042Y   24268.44803420  .00007424  00000+0  61259-3 0  9998
2 42847  97.3749  88.5352 0009636  87.3852 272.8474 14.99239542392325
VRSS-2                  
1 42954U 17060A   24268.81662875  .00002480  00000+0  34166-3 0  9999
2 42954  97.7433 321.3604 0017693   2.2391 357.8897 14.79003102375190
MOHAMMED VI-A           
1 43005U 17070A   24268.80461320  .00002137  00000+0  30995-3 0  9994
2 43005  97.9477 339.1866 0001230  74.3307 285.8038 14.77057629370926
FENGYUN 3D              
1 43010U 17072A   24268.84137670  .00000352  00000+0  18882-3 0  9992
2 43010  98.9218 224.1298 0002555  65.2119 294.9322 14.19433976355557
CZ-4C R/B               
1 43012U 17072C   24268.22156682  .00000955  00000+0  20035-3 0  9992
2 43012  98.5931 345.1782 0123726 294.3027  64.5290 14.57592427364673
NOAA 20 (JPSS-1)        
1 43013U 17073A   24268.79470168  .00000268  00000+0  14753-3 0  9991
2 43013  98.7111 205.0632 0000719   7.8887 352.2301 14.19593572355031
MIRATA                  
1 43015U 17073C   24268.62638255  .00039589  00000+0  15998-2 0  9997
2 43015  97.5772 152.5641 0149007 279.7751  78.6682 15.14941571371348
MAKERSAT 0              
1 43016U 17073D   24268.55323358  .00025584  00000+0  13484-2 0  9993
2 43016  97.5539 144.9203 0180815 306.0564  52.4026 15.02486949370810
RADFXSAT (FOX-1B)       
1 43017U 17073E   24268.20679913  .00016778  00000+0  98615-3 0  9992
2 43017  97.5602 140.2802 0200494 322.5239  36.2142 14.96342478370453
EAGLESAT 1              
1 43018U 17073F   24268.62229613  .00041108  00000+0  16974-2 0  9999
2 43018  97.5772 152.2690 0153034 285.0896  73.3447 15.13765642371092
JILIN-1 04              
1 43022U 17074A   24268.83271891  .00015650  00000+0  66173-3 0  9993
2 43022  97.4846   0.0914 0004946 280.4925  79.5754 15.23296129377686
JILIN-1 05              
1 43023U 17074B   24268.79993703  .00012201  00000+0  52641-3 0  9996
2 43023  97.4875   0.5561 0005185 301.7558  58.3172 15.22668250377683
JILIN-1 06              
1 43024U 17074C   24268.79757290  .00013416  00000+0  62430-3 0  9992
2 43024  97.4867 358.9141 0007912 309.3444  50.7089 15.20037692377587
IRIDIUM 116             
1 43072U 17083C   24268.85642285  .00000470  00000+0  16086-3 0  9991
2 43072  86.3978 225.3887 0002297  88.4313 271.7146 14.34217141353828
IRIDIUM 130             
1 43073U 17083D   24268.82470869  .00000507  00000+0  17399-3 0  9995
2 43073  86.3986 225.6156 0002263  91.2578 268.8878 14.34216985353765
LKW-2                   
1 43080U 17084A   24268.80949764  .00014054  00000+0  59865-3 0  9993
2 43080  97.2123 325.5555 0002336 213.3806 146.7284 15.23070803375688
SUPERVIEW-1 03          
1 43099U 18002A   24268.76313422  .00045962  00000+0  10491-2 0  9998
2 43099  97.3671 349.5477 0002729  92.6163 267.5397 15.42739134371926
SUPERVIEW-1 04          
1 43100U 18002B   24268.78292993  .00046956  00000+0  10036-2 0  9991
2 43100  97.3691 350.4343 0001489 174.2009 185.9257 15.44693004371961
